{
  "norad_id": 55657,
  "name": "STARLINK-5328",
  "history": [
    {
      "epoch": "2026-05-03T20:29:55.573152Z",
      "apogee_km": 574.3067265197869,
      "perigee_km": 569.7988334284964,
      "latitude_deg": 4.1127779726321196e-05,
      "longitude_deg": -143.7048716822254,
      "height_km": 574.5456261915206,
      "semi_major_axis_km": 6950.189779974142,
      "eccentricity": 0.0003243,
      "inclination_deg": 69.9998,
      "raan_deg": 25.5285,
      "arg_perigee_deg": 268.3433,
      "mean_anomaly_deg": 91.7355,
      "mean_motion_rev_day": 14.98331006
    }
  ]
}